NORAD_CAT_ID,OBJECT_NAME,OBJECT_TYPE,EPOCH,MEAN_MOTION,ECCENTRICITY,INCLINATION,RA_OF_ASC_NODE,ARG_OF_PERICENTER,MEAN_ANOMALY,BSTAR,MEAN_MOTION_DOT,MEAN_MOTION_DDOT,TLE_LINE0,TLE_LINE1,TLE_LINE2,SEMIMAJOR_AXIS,PERIOD,APOGEE,PERIGEE,DECAYED
52110.0,STARLINK-3687,PAYLOAD,2024-02-20 13:56:31,15.08840813,0.0001261,53.2157,197.5097,95.5208,264.5928,0.00012263,1.664e-05,0.0,0 STARLINK-3687,1 52110U 22029Y   24051.58091778  .00001664  00000-0  12263-3 0  9995,2 52110  53.2157 197.5097 0001261  95.5208 264.5928 15.08840813107845,6917.878,95.438,540.615,538.871,0.0
52110.0,STARLINK-3687,PAYLOAD,2024-02-20 18:42:40,15.08845777,0.0001351,53.2159,196.6182,93.2908,266.8239,0.00025149,3.717e-05,0.0,0 STARLINK-3687,1 52110U 22029Y   24051.77963683  .00003717  00000-0  25149-3 0  9997,2 52110  53.2159 196.6182 0001351  93.2908 266.8239 15.08845777107871,6917.863,95.437,540.662,538.793,0.0
52110.0,STARLINK-3687,PAYLOAD,2024-02-21 15:22:41,15.08842136,0.0001177,53.2158,192.7525,84.3004,275.8123,0.00018223,2.614e-05,0.0,0 STARLINK-3687,1 52110U 22029Y   24052.64075857  .00002614  00000-0  18223-3 0  9991,2 52110  53.2158 192.7525 0001177  84.3004 275.8123 15.08842136108006,6917.874,95.437,540.553,538.925,0.0
52110.0,STARLINK-3687,PAYLOAD,2024-02-21 16:58:04,15.0884705,0.0001364,53.2156,192.4548,86.7797,273.3351,0.00029024,4.335e-05,0.0,0 STARLINK-3687,1 52110U 22029Y   24052.70699730  .00004335  00000-0  29024-3 0  9993,2 52110  53.2156 192.4548 0001364  86.7797 273.3351 15.08847050108016,6917.859,95.437,540.667,538.78,0.0
52110.0,STARLINK-3687,PAYLOAD,2024-02-22 08:51:56,15.08842014,0.0001487,53.2155,189.4821,85.5196,274.5966,0.00014682,2.05e-05,0.0,0 STARLINK-3687,1 52110U 22029Y   24053.36939940  .00002050  00000-0  14682-3 0  9992,2 52110  53.2155 189.4821 0001487  85.5196 274.5966 15.08842014108112,6917.874,95.437,540.768,538.711,0.0
52110.0,STARLINK-3687,PAYLOAD,2024-02-22 13:38:05,15.08841119,0.0001467,53.2163,188.5887,87.7525,272.3635,0.00011806,1.592e-05,0.0,0 STARLINK-3687,1 52110U 22029Y   24053.56812018  .00001592  00000-0  11806-3 0  9995,2 52110  53.2163 188.5887 0001467  87.7525 272.3635 15.08841119108148,6917.877,95.437,540.757,538.727,0.0
52110.0,STARLINK-3687,PAYLOAD,2024-02-22 15:13:28,15.08841772,0.0001443,53.2156,188.2915,87.2461,272.8696,8.5883e-05,1.079e-05,0.0,0 STARLINK-3687,1 52110U 22029Y   24053.63435961  .00001079  00000-0  85883-4 0  9998,2 52110  53.2156 188.2915 0001443  87.2461 272.8696 15.08841772108155,6917.875,95.437,540.738,538.742,0.0
52110.0,STARLINK-3687,PAYLOAD,2024-02-23 11:53:29,15.08838755,0.0001518,53.2158,184.4252,82.7832,277.3333,0.00025604,3.789e-05,0.0,0 STARLINK-3687,1 52110U 22029Y   24054.49548225  .00003789  00000-0  25604-3 0  9995,2 52110  53.2158 184.4252 0001518  82.7832 277.3333 15.08838755108283,6917.884,95.438,540.799,538.699,0.0
52110.0,STARLINK-3687,PAYLOAD,2024-02-23 15:04:15,15.08847842,0.0001543,53.2159,183.8297,85.4739,274.643,9.4666e-05,1.219e-05,0.0,0 STARLINK-3687,1 52110U 22029Y   24054.62795775  .00001219  00000-0  94666-4 0  9995,2 52110  53.2159 183.8297 0001543  85.4739 274.6430 15.08847842108308,6917.856,95.437,540.789,538.654,0.0
52110.0,STARLINK-3687,PAYLOAD,2024-02-23 18:15:01,15.08846271,0.0001411,53.2159,183.2342,86.315,273.8004,0.00028774,4.295e-05,0.0,0 STARLINK-3687,1 52110U 22029Y   24054.76043830  .00004295  00000-0  28774-3 0  9991,2 52110  53.2159 183.2342 0001411  86.3150 273.8004 15.08846271108329,6917.861,95.437,540.702,538.75,0.0
52110.0,STARLINK-3687,PAYLOAD,2024-02-24 11:44:18,15.08793292,0.0001908,53.2172,179.9569,102.68,257.4405,0.0013219,0.00020786,0.0,0 STARLINK-3687,1 52110U 22029Y   24055.48910747  .00020786  00000-0  13219-2 0  9991,2 52110  53.2172 179.9569 0001908 102.6800 257.4405 15.08793292108431,6918.023,95.441,541.208,538.568,0.0
52110.0,STARLINK-3687,PAYLOAD,2024-02-24 14:55:03,15.08839839,0.0001378,53.2169,179.369,88.9067,271.2083,7.9301e-05,9.74e-06,0.0,0 STARLINK-3687,1 52110U 22029Y   24055.62156392  .00000974  00000-0  79301-4 0  9998,2 52110  53.2169 179.3690 0001378  88.9067 271.2083 15.08839839108454,6917.881,95.438,540.699,538.793,0.0
52110.0,STARLINK-3687,PAYLOAD,2024-02-24 18:05:49,15.08841772,0.0001461,53.2153,178.7722,87.5635,272.5524,0.00011406,1.528e-05,0.0,0 STARLINK-3687,1 52110U 22029Y   24055.75404244  .00001528  00000-0  11406-3 0  9991,2 52110  53.2153 178.7722 0001461  87.5635 272.5524 15.08841772108470,6917.875,95.437,540.751,538.729,0.0
52110.0,STARLINK-3687,PAYLOAD,2024-02-25 14:45:49,15.08851374,0.0001506,53.216,174.9047,87.4373,272.6791,0.00021299,3.104e-05,0.0,0 STARLINK-3687,1 52110U 22029Y   24056.61515753  .00003104  00000-0  21299-3 0  9998,2 52110  53.2160 174.9047 0001506  87.4373 272.6791 15.08851374108605,6917.846,95.437,540.752,538.669,0.0
52110.0,STARLINK-3687,PAYLOAD,2024-02-26 00:18:08,15.08847471,0.0001601,53.2173,173.1213,80.7942,279.3231,0.00015529,2.185e-05,0.0,0 STARLINK-3687,1 52110U 22029Y   24057.01259949  .00002185  00000-0  15529-3 0  9992,2 52110  53.2173 173.1213 0001601  80.7942 279.3231 15.08847471108661,6917.858,95.437,540.83,538.615,0.0
52110.0,STARLINK-3687,PAYLOAD,2024-02-26 11:25:50,15.08838803,0.0001563,53.2162,171.0423,99.7344,260.3825,1.4538e-05,-5.7e-07,0.0,0 STARLINK-3687,1 52110U 22029Y   24057.47628237 -.00000057  00000-0  14538-4 0  9999,2 52110  53.2162 171.0423 0001563  99.7344 260.3825 15.08838803108738,6917.884,95.438,540.83,538.668,0.0
52110.0,STARLINK-3687,PAYLOAD,2024-02-26 13:01:13,15.0884233,0.0001509,53.218,170.7502,107.476,252.6397,6.342e-05,7.22e-06,0.0,0 STARLINK-3687,1 52110U 22029Y   24057.54252081  .00000722  00000-0  63420-4 0  9999,2 52110  53.2180 170.7502 0001509 107.4760 252.6397 15.08842330108740,6917.873,95.437,540.782,538.694,0.0
52110.0,STARLINK-3687,PAYLOAD,2024-02-26 17:47:22,15.08852639,0.0001361,53.2171,169.8539,104.5919,255.5224,0.00019924,2.885e-05,0.0,0 STARLINK-3687,1 52110U 22029Y   24057.74123345  .00002885  00000-0  19924-3 0  9992,2 52110  53.2171 169.8539 0001361 104.5919 255.5224 15.08852639108776,6917.842,95.437,540.648,538.765,0.0
52110.0,STARLINK-3687,PAYLOAD,2024-02-27 11:16:37,15.08839978,0.0001975,53.2166,166.5768,123.4378,236.6803,-0.0001126,-2.08e-05,0.0,0 STARLINK-3687,1 52110U 22029Y   24058.46988051 -.00002080  00000-0 -11260-3 0  9999,2 52110  53.2166 166.5768 0001975 123.4378 236.6803 15.08839978108884,6917.88,95.438,541.112,538.379,0.0
52110.0,STARLINK-3687,PAYLOAD,2024-02-27 14:27:24,15.08834287,0.0001654,53.2167,165.9895,73.8237,286.2937,-0.00015321,-2.725e-05,0.0,0 STARLINK-3687,1 52110U 22029Y   24058.60236685 -.00002725  00000-0 -15321-3 0  9992,2 52110  53.2167 165.9895 0001654  73.8237 286.2937 15.08834287108905,6917.898,95.438,540.907,538.619,0.0
52110.0,STARLINK-3687,PAYLOAD,2024-02-27 17:38:09,15.08856174,0.0002359,53.2167,165.3955,49.7654,310.3544,0.00020114,2.916e-05,0.0,0 STARLINK-3687,1 52110U 22029Y   24058.73483785  .00002916  00000-0  20114-3 0  9997,2 52110  53.2167 165.3955 0002359  49.7654 310.3544 15.08856174108928,6917.831,95.437,541.328,538.064,0.0
52110.0,STARLINK-3687,PAYLOAD,2024-02-28 14:18:10,15.08851359,0.0001404,53.2162,161.5262,81.8759,278.2392,0.00015773,2.224e-05,0.0,0 STARLINK-3687,1 52110U 22029Y   24059.59595805  .00002224  00000-0  15773-3 0  9996,2 52110  53.2162 161.5262 0001404  81.8759 278.2392 15.08851359109053,6917.846,95.437,540.682,538.739,0.0
52110.0,STARLINK-3687,PAYLOAD,2024-02-29 12:33:35,15.08836325,0.0001583,53.2164,157.3629,77.6808,282.4361,0.00011277,1.507e-05,0.0,0 STARLINK-3687,1 52110U 22029Y   24060.52333141  .00001507  00000-0  11277-3 0  9992,2 52110  53.2164 157.3629 0001583  77.6808 282.4361 15.08836325109195,6917.892,95.438,540.852,538.662,0.0
52110.0,STARLINK-3687,PAYLOAD,2024-02-29 14:08:58,15.08835632,0.0001761,53.2175,157.067,53.4847,306.6307,0.00018264,2.62e-05,0.0,0 STARLINK-3687,1 52110U 22029Y   24060.58957083  .00002620  00000-0  18264-3 0  9995,2 52110  53.2175 157.0670 0001761  53.4847 306.6307 15.08835632109204,6917.894,95.438,540.977,538.54,0.0
52110.0,STARLINK-3687,PAYLOAD,2024-03-01 12:24:22,15.08843623,0.0001455,53.2169,152.9045,82.4498,277.666,6.9155e-05,8.13e-06,0.0,0 STARLINK-3687,1 52110U 22029Y   24061.51692789  .00000813  00000-0  69155-4 0  9996,2 52110  53.2169 152.9045 0001455  82.4498 277.6660 15.08843623109344,6917.869,95.437,540.741,538.728,0.0
52110.0,STARLINK-3687,PAYLOAD,2024-03-02 12:15:09,15.0883932,0.0001437,53.2166,148.4443,76.6334,283.4818,9.3751e-05,1.204e-05,0.0,0 STARLINK-3687,1 52110U 22029Y   24062.51053196  .00001204  00000-0  93751-4 0  9994,2 52110  53.2166 148.4443 0001437  76.6334 283.4818 15.08839320109492,6917.882,95.438,540.742,538.753,0.0
52110.0,STARLINK-3687,PAYLOAD,2024-03-03 12:05:56,15.08842364,0.0001562,53.2176,143.9852,86.0198,274.0973,9.6754e-05,1.252e-05,0.0,0 STARLINK-3687,1 52110U 22029Y   24063.50413106  .00001252  00000-0  96754-4 0  9994,2 52110  53.2176 143.9852 0001562  86.0198 274.0973 15.08842364109646,6917.873,95.437,540.819,538.658,0.0
52110.0,STARLINK-3687,PAYLOAD,2024-03-04 11:56:43,15.0885941,0.0001516,53.2166,139.5271,91.9687,268.1478,0.00028686,4.283e-05,0.0,0 STARLINK-3687,1 52110U 22029Y   24064.49772040  .00004283  00000-0  28686-3 0  9993,2 52110  53.2166 139.5271 0001516  91.9687 268.1478 15.08859410109798,6917.821,95.436,540.735,538.637,0.0
52110.0,STARLINK-3687,PAYLOAD,2024-03-05 13:22:55,15.08823447,0.0001246,53.216,134.7668,83.0553,277.0581,-0.00019612,-3.406e-05,0.0,0 STARLINK-3687,1 52110U 22029Y   24065.55758285 -.00003406  00000-0 -19612-3 0  9993,2 52110  53.2160 134.7668 0001246  83.0553 277.0581 15.08823447109956,6917.931,95.439,540.658,538.934,0.0
52110.0,STARLINK-3687,PAYLOAD,2024-03-06 03:41:23,15.08835006,0.0001185,53.2152,132.0857,99.4395,260.6731,-9.5149e-05,-1.802e-05,0.0,0 STARLINK-3687,1 52110U 22029Y   24066.15374012 -.00001802  00000-0 -95149-4 0  9990,2 52110  53.2152 132.0857 0001185  99.4395 260.6731 15.08835006110046,6917.896,95.438,540.58,538.941,0.0
